GAOFEN-14 02            
1 66175U 25242A   25318.46556247  .00014152  00000+0  52318-3 0  9992
2 66175  97.4386  30.6022 0011017 193.9078 166.1859 15.27766001  2951
CZ-3B R/B               
1 66176U 25242B   25309.65934494  .00029904  00000+0  58815-3 0  9997
2 66176  97.4571  21.8726 0103778   5.1082 355.1197 15.41457457  1622
STARLINK-35352          
1 66177U 25243A   25323.58335648 -.02283850  00000+0 -42846-1 0  9994
2 66177  53.1598  37.5097 0001217  61.1688 325.8818 15.51748358  4862
STARLINK-35363          
1 66178U 25243B   25323.58335648 -.02273326  00000+0 -42633-1 0  9996
2 66178  53.1604  37.5173 0001220  61.5846 321.6347 15.51740075  4926
STARLINK-35346          
1 66179U 25243C   25323.58335648 -.02273711  00000+0 -42642-1 0  9995
2 66179  53.1603  37.5214 0001174  62.8138 318.4893 15.51740156  4861
STARLINK-35335          
1 66180U 25243D   25323.58335648 -.02277062  00000+0 -42710-1 0  9996
2 66180  53.1599  37.5263 0001177  63.1654 316.2197 15.51742853  4860
STARLINK-35342          
1 66181U 25243E   25323.58335648 -.02283166  00000+0 -42833-1 0  9995
2 66181  53.1598  37.5302 0001149  62.0075 315.4592 15.51747653  4861
STARLINK-35333          
1 66182U 25243F   25323.58335648 -.02282601  00000+0 -42823-1 0  9998
2 66182  53.1596  37.5336 0001145  67.1716 308.3801 15.51746407  4816
STARLINK-35310          
1 66183U 25243G   25323.58335648 -.02274195  00000+0 -42653-1 0  9999
2 66183  53.1596  37.5382 0001133  65.4732 308.1627 15.51740601  4920
STARLINK-35317          
1 66184U 25243H   25323.58335648 -.02248016  00000+0 -42125-1 0  9997
2 66184  53.1599  37.5793 0001025  53.7637 300.7060 15.51721688  4860
STARLINK-35377          
1 66185U 25243J   25323.58335648 -.02268379  00000+0 -42535-1 0  9997
2 66185  53.1599  37.5863 0000968  61.7291 288.9046 15.51737610  4929
STARLINK-35365          
1 66186U 25243K   25323.58335648 -.02259994  00000+0 -42367-1 0  9994
2 66186  53.1598  37.5952 0000892  54.1102 292.6894 15.51731505  4864
